ONEWEB-0188             
1 48231U 21031X   25361.94410119 -.00000043  00000+0 -15058-3 0  9991
2 48231  87.8992 323.8584 0001757  83.6568 276.4762 13.14502156225643
ONEWEB-0220             
1 48232U 21031Y   25362.28821688  .00000119  00000+0  28731-3 0  9991
2 48232  87.9015 323.7403 0001632  88.8147 271.3170 13.14500988225954
ONEWEB-0165             
1 48233U 21031Z   25361.93617772 -.00000147  00000+0 -43035-3 0  9997
2 48233  87.8996 323.8344 0001509  75.2767 284.8530 13.14501795225864
ONEWEB-0199             
1 48234U 21031AA  25362.14867380 -.00000041  00000+0 -14613-3 0  9997
2 48234  87.9011 323.7689 0001972  81.1317 279.0036 13.14501379225793
ONEWEB-0203             
1 48235U 21031AB  25362.29139149  .00000076  00000+0  17083-3 0  9999
2 48235  87.9005 323.7405 0001765  73.9736 286.1588 13.14500750225824
ONEWEB-0197             
1 48236U 21031AC  25362.26587780  .00000231  00000+0  58788-3 0  9995
2 48236  87.9007 323.7445 0001962  91.1198 269.0157 13.14502218225737
ONEWEB-0194             
1 48237U 21031AD  25361.94092485 -.00000158  00000+0 -46138-3 0  9999
2 48237  87.9007 323.8261 0001980  77.6208 282.5143 13.14500806225866
ONEWEB-0193             
1 48238U 21031AE  25362.26126072 -.00000002  00000+0 -40256-4 0  9990
2 48238  87.9005 323.7568 0002166  74.8725 285.2644 13.14500227225856
ONEWEB-0191             
1 48239U 21031AF  25362.27237460  .00000244  00000+0  62264-3 0  9994
2 48239  87.9015 323.7453 0001853  82.4749 277.6591 13.14503297225715
ONEWEB-0195             
1 48240U 21031AG  25362.17325430 -.00000108  00000+0 -32481-3 0  9999
2 48240  87.9015 323.7628 0001404  76.6796 283.4491 13.14503133225689
ONEWEB-0201             
1 48241U 21031AH  25361.93315459 -.00000148  00000+0 -43279-3 0  9994
2 48241  87.8996 323.8472 0001650  91.9967 268.1352 13.14503518225883
ONEWEB-0207             
1 48242U 21031AJ  25362.29377285  .00000050  00000+0  99698-4 0  9997
2 48242  87.9011 323.7399 0001766  89.2946 270.8386 13.14503252225843
ONEWEB-0208             
1 48243U 21031AK  25362.27554127  .00000235  00000+0  59805-3 0  9998
2 48243  87.9006 323.7571 0001525  76.8407 283.2893 13.14502318225851
ONEWEB-0200             
1 48244U 21031AL  25361.93459492 -.00000186  00000+0 -53620-3 0  9996
2 48244  87.9005 323.8147 0001691  81.4734 278.6587 13.14503183225736
ONEWEB-0217             
1 48245U 21031AM  25361.95043958  .00000036  00000+0  61892-4 0  9998
2 48245  87.9016 323.8071 0001506  76.9847 283.1450 13.14501934225680
ONEWEB-0211             
1 48767U 21045A   25362.29465929 -.00000027  00000+0 -10367-3 0  9998
2 48767  87.9017 293.2188 0001566  62.1258 298.0031 13.16138086221961
ONEWEB-0223             
1 48768U 21045B   25362.29246624 -.00000051  00000+0 -17045-3 0  9995
2 48768  87.9005 293.2871 0001788  62.3381 297.7930 13.15553975221931
